{
    "links": {
        "self": "http://www.neowsapp.com/rest/v1/neo/3745507?api_key=iIulBulltgU6a56xZRHN4H3l9WmuAYTsLGpBGhQ2"
    },
    "id": "3745507",
    "neo_reference_id": "3745507",
    "name": "(2016 EG28)",
    "designation": "2016 EG28",
    "nasa_jpl_url": "http://ssd.jpl.nasa.gov/sbdb.cgi?sstr=3745507",
    "absolute_magnitude_h": 27.9,
    "estimated_diameter": {
        "kilometers": {
            "estimated_diameter_min": 0.0069912523,
            "estimated_diameter_max": 0.0156329154
        },
        "meters": {
            "estimated_diameter_min": 6.9912523225,
            "estimated_diameter_max": 15.6329154409
        },
        "miles": {
            "estimated_diameter_min": 0.0043441614,
            "estimated_diameter_max": 0.0097138403
        },
        "feet": {
            "estimated_diameter_min": 22.9371802696,
            "estimated_diameter_max": 51.289094295
        }
    },
    "is_potentially_hazardous_asteroid": false,
    "close_approach_data": [
        {
            "close_approach_date": "2016-03-03",
            "close_approach_date_full": "2016-Mar-03 13:46",
            "epoch_date_close_approach": 1457012760000,
            "relative_velocity": {
                "kilometers_per_second": "15.720975308",
                "kilometers_per_hour": "56595.5111089519",
                "miles_per_hour": "35166.2496665596"
            },
            "miss_distance": {
                "astronomical": "0.0063326529",
                "lunar": "2.4634019781",
                "kilometers": "947351.385289323",
                "miles": "588656.8544377374"
            },
            "orbiting_body": "Moon"
        },
        {
            "close_approach_date": "2016-03-03",
            "close_approach_date_full": "2016-Mar-03 14:56",
            "epoch_date_close_approach": 1457016960000,
            "relative_velocity": {
                "kilometers_per_second": "14.7840266162",
                "kilometers_per_hour": "53222.4958184744",
                "miles_per_hour": "33070.3891378737"
            },
            "miss_distance": {
                "astronomical": "0.0047650009",
                "lunar": "1.8535853501",
                "kilometers": "712833.985188083",
                "miles": "442934.4992502254"
            },
            "orbiting_body": "Earth"
        },
        {
            "close_approach_date": "2020-09-02",
            "close_approach_date_full": "2020-Sep-02 22:32",
            "epoch_date_close_approach": 1599085920000,
            "relative_velocity": {
                "kilometers_per_second": "15.2120316705",
                "kilometers_per_hour": "54763.3140139436",
                "miles_per_hour": "34027.7936438307"
            },
            "miss_distance": {
                "astronomical": "0.092756325",
                "lunar": "36.082210425",
                "kilometers": "13876148.64902775",
                "miles": "8622238.95197295"
            },
            "orbiting_body": "Mars"
        },
        {
            "close_approach_date": "2020-10-17",
            "close_approach_date_full": "2020-Oct-17 17:39",
            "epoch_date_close_approach": 1602956340000,
            "relative_velocity": {
                "kilometers_per_second": "15.6638397481",
                "kilometers_per_hour": "56389.823093178",
                "miles_per_hour": "35038.4431325361"
            },
            "miss_distance": {
                "astronomical": "0.1058812069",
                "lunar": "41.1877894841",
                "kilometers": "15839603.025269303",
                "miles": "9842272.9276422614"
            },
            "orbiting_body": "Earth"
        }
    ],
    "orbital_data": {
        "orbit_id": "11",
        "orbit_determination_date": "2017-04-06 08:27:45",
        "first_observation_date": "2016-03-05",
        "last_observation_date": "2016-03-16",
        "data_arc_in_days": 11,
        "observations_used": 43,
        "orbit_uncertainty": "7",
        "minimum_orbit_intersection": ".00314306",
        "jupiter_tisserand_invariant": "3.833",
        "epoch_osculation": "2459000.5",
        "eccentricity": ".5713073518750084",
        "semi_major_axis": "1.809991177626025",
        "inclination": "8.110887803030499",
        "ascending_node_longitude": "344.4957095465406",
        "orbital_period": "889.4327443112613",
        "perihelion_distance": ".7759299110193729",
        "perihelion_argument": "112.3240109976816",
        "aphelion_distance": "2.844052444232678",
        "perihelion_time": "2459187.145075080784",
        "mean_anomaly": "284.4549658657855",
        "mean_motion": ".4047523573901797",
        "equinox": "J2000",
        "orbit_class": {
            "orbit_class_type": "APO",
            "orbit_class_description": "Near-Earth asteroid orbits which cross the Earth’s orbit similar to that of 1862 Apollo",
            "orbit_class_range": "a (semi-major axis) > 1.0 AU; q (perihelion) < 1.017 AU"
        }
    },
    "is_sentry_object": false
}